IRIDIUM 63              
1 25286U 98021B   25122.55460267  .00000747  00000+0  24786-3 0  9997
2 25286  86.3940 101.2779 0002463  86.8239 273.3240 14.36507030417296
IRIDIUM 69              
1 25319U 98026A   25122.56814170  .00000889  00000+0  27114-3 0  9991
2 25319  86.3936 114.7035 0003413 131.8689 228.2802 14.40922125416493
IRIDIUM 71              
1 25320U 98026B   25122.44220992  .00000838  00000+0  25414-3 0  9998
2 25320  86.3932 109.4540 0001207 155.3841 204.7416 14.41116827417006
IRIDIUM 73              
1 25344U 98032C   25122.43053753  .00001289  00000+0  31658-3 0  9997
2 25344  86.4410  66.2452 0002752  98.7538 261.3979 14.51658190423921
IRIDIUM 82              
1 25467U 98051A   25122.54039174  .00036084  00000+0  10900-2 0  9994
2 25467  86.3659 132.1443 0092802 109.3877 251.7431 15.29846767416972
